{
"type": "FeatureCollection",
"name": "baby_goods",
"crs": { "type": "name", "properties": { "name": "urn:ogc:def:crs:OGC:1.3:CRS84" } },
"features": [
{ "type": "Feature", "properties": { "full_id": "n7744396672", "osm_id": "7744396672", "osm_type": "node", "shop": "baby_goods", "addr:street": null, "addr:housenumber": null, "addr:city": null, "operator": "ИП Мамадалиев А.Т.", "opening_hours": "Mo-Fr 11:00-20:00;Sa-Su 11:00-17:00", "name": "Есть всё от А до Я", "contact:website": "https://mattam.ru/", "contact:vk": "https://vk.com/id134340999", "contact:phone": "+7 902 6472243", "contact:email": "info@mattam.ru" }, "geometry": { "type": "Point", "coordinates": [ 56.2698698, 57.9996474 ] } },
{ "type": "Feature", "properties": { "full_id": "n8065663376", "osm_id": "8065663376", "osm_type": "node", "shop": "baby_goods", "addr:street": null, "addr:housenumber": null, "addr:city": null, "operator": "Магия скидок", "opening_hours": "Mo-Su 10:00-20:00", "name": "Магия скидок", "contact:website": null, "contact:vk": "https://vk.com/toysmagicdiscount", "contact:phone": "+7 982 4960558", "contact:email": null }, "geometry": { "type": "Point", "coordinates": [ 56.1411077, 57.9977796 ] } },
{ "type": "Feature", "properties": { "full_id": "n8065663380", "osm_id": "8065663380", "osm_type": "node", "shop": "baby_goods", "addr:street": null, "addr:housenumber": null, "addr:city": null, "operator": "Магия скидок", "opening_hours": "Mo-Su 10:00-20:00", "name": "Магия скидок", "contact:website": null, "contact:vk": "https://vk.com/toysmagicdiscount", "contact:phone": "+7 982 4960558", "contact:email": null }, "geometry": { "type": "Point", "coordinates": [ 56.260981, 58.0023308 ] } },
{ "type": "Feature", "properties": { "full_id": "n8065663381", "osm_id": "8065663381", "osm_type": "node", "shop": "baby_goods", "addr:street": null, "addr:housenumber": null, "addr:city": null, "operator": "Магия скидок", "opening_hours": "Mo-Su 10:00-20:00", "name": "Магия скидок", "contact:website": null, "contact:vk": "https://vk.com/toysmagicdiscount", "contact:phone": "+7 982 4960558", "contact:email": null }, "geometry": { "type": "Point", "coordinates": [ 55.9382174, 58.0053096 ] } },
{ "type": "Feature", "properties": { "full_id": "n8154382961", "osm_id": "8154382961", "osm_type": "node", "shop": "baby_goods", "addr:street": null, "addr:housenumber": null, "addr:city": null, "operator": "Магазин игрушек и книг", "opening_hours": "Mo-Fr 10:00-20:00;Sa-Su 10:00-19:00", "name": "Магазин игрушек и книг", "contact:website": null, "contact:vk": null, "contact:phone": "+7 982 4459192", "contact:email": null }, "geometry": { "type": "Point", "coordinates": [ 56.311346, 58.035952 ] } },
{ "type": "Feature", "properties": { "full_id": "n8154382962", "osm_id": "8154382962", "osm_type": "node", "shop": "baby_goods", "addr:street": null, "addr:housenumber": null, "addr:city": null, "operator": "Кириллова Л.Б.", "opening_hours": "Mo-Fr 10:00-20:00;Sa-Su 10:00-18:00", "name": "Магазин канцтоваров и игрушек", "contact:website": null, "contact:vk": null, "contact:phone": "+7 912 5839995", "contact:email": null }, "geometry": { "type": "Point", "coordinates": [ 56.248316, 57.98771 ] } },
{ "type": "Feature", "properties": { "full_id": "n8521164970", "osm_id": "8521164970", "osm_type": "node", "shop": "baby_goods", "addr:street": null, "addr:housenumber": null, "addr:city": null, "operator": "Happy kids", "opening_hours": "Mo-Su 10:00-20:00", "name": "Happy kids", "contact:website": "https://avito.ru/", "contact:vk": null, "contact:phone": "+7 902 4761714;+7 908 2590284", "contact:email": null }, "geometry": { "type": "Point", "coordinates": [ 56.228076, 58.005665 ] } },
{ "type": "Feature", "properties": { "full_id": "n9587299391", "osm_id": "9587299391", "osm_type": "node", "shop": "baby_goods", "addr:street": "Петропавловская улица", "addr:housenumber": "73А", "addr:city": "Пермь", "operator": null, "opening_hours": "Mo-Su 10:00-22:00", "name": "Бубль-Гум", "contact:website": "https://boobl-goom.ru/", "contact:vk": null, "contact:phone": "+7 922 3312676", "contact:email": "support@boobl-goom.ru" }, "geometry": { "type": "Point", "coordinates": [ 56.2271876, 58.0120076 ] } }
]
}
