{
"type": "FeatureCollection",
"name": "fire_station",
"crs": { "type": "name", "properties": { "name": "urn:ogc:def:crs:OGC:1.3:CRS84" } },
"features": [
{ "type": "Feature", "properties": { "full_id": "w364455586", "osm_id": "364455586", "osm_type": "way", "amenity": "fire_station", "level": null, "entrance": null, "access": null, "barrier": null, "ref": null, "phone": null, "operator": null, "name": "ПЧ 25", "email": null, "addr:street": "Промышленная улица", "addr:housenumber": "84", "addr:city": "Пермь" }, "geometry": { "type": "Point", "coordinates": [ 56.141677753773457, 57.921757267200014 ] } },
{ "type": "Feature", "properties": { "full_id": "w385536421", "osm_id": "385536421", "osm_type": "way", "amenity": "fire_station", "level": null, "entrance": null, "access": null, "barrier": null, "ref": "ПЧ-7", "phone": "+7 342 2853708", "operator": "RU-PER-7", "name": "Пожарная часть №7", "email": "7pch7ofps@mail.ru", "addr:street": "улица Васнецова", "addr:housenumber": "4", "addr:city": "Пермь" }, "geometry": { "type": "Point", "coordinates": [ 56.287817975769251, 58.117830997489783 ] } },
{ "type": "Feature", "properties": { "full_id": "w466944576", "osm_id": "466944576", "osm_type": "way", "amenity": "fire_station", "level": null, "entrance": null, "access": null, "barrier": null, "ref": "ПСЧ-110", "phone": "+73421104289", "operator": "RU-PER-10-110", "name": "Пожарно-спасательная часть №110", "email": "pch110@ugps.perm.ru", "addr:street": "Екатерининская улица", "addr:housenumber": "53А", "addr:city": "Пермь" }, "geometry": { "type": "Point", "coordinates": [ 56.250064383201071, 58.011219493043143 ] } },
{ "type": "Feature", "properties": { "full_id": "w689192168", "osm_id": "689192168", "osm_type": "way", "amenity": "fire_station", "level": null, "entrance": null, "access": null, "barrier": "fence", "ref": null, "phone": null, "operator": null, "name": "Пожарная часть №1", "email": null, "addr:street": "улица Ломоносова", "addr:housenumber": "96", "addr:city": "Пермь" }, "geometry": { "type": "Point", "coordinates": [ 56.160254797009017, 58.025811217262813 ] } },
{ "type": "Feature", "properties": { "full_id": "w92385310", "osm_id": "92385310", "osm_type": "way", "amenity": "fire_station", "level": null, "entrance": null, "access": null, "barrier": "wall", "ref": "ПЧ-6", "phone": "+7 342 2840420", "operator": "RU-PEM-7", "name": "Пожарная часть №6", "email": "6pch7ofps@mail.ru", "addr:street": null, "addr:housenumber": null, "addr:city": null }, "geometry": { "type": "Point", "coordinates": [ 55.975502571635872, 58.020657661529548 ] } },
{ "type": "Feature", "properties": { "full_id": "w108353333", "osm_id": "108353333", "osm_type": "way", "amenity": "fire_station", "level": null, "entrance": null, "access": null, "barrier": null, "ref": "ПСЧ-2", "phone": "+7 342 2260292", "operator": "RU-PER-10-2", "name": "Пожарно-спасательная часть №2", "email": "pch2.perm@yandex.ru", "addr:street": "улица Космонавта Беляева", "addr:housenumber": "29", "addr:city": "Пермь" }, "geometry": { "type": "Point", "coordinates": [ 56.175498990025851, 57.971087178306817 ] } },
{ "type": "Feature", "properties": { "full_id": "w162211913", "osm_id": "162211913", "osm_type": "way", "amenity": "fire_station", "level": null, "entrance": null, "access": null, "barrier": null, "ref": "ПЧ-53", "phone": null, "operator": "RU-PER-10", "name": "Пожарная часть №53", "email": null, "addr:street": "Железнодорожная улица", "addr:housenumber": "18", "addr:city": "Новые Ляды" }, "geometry": { "type": "Point", "coordinates": [ 56.59506572315064, 58.055248848311685 ] } },
{ "type": "Feature", "properties": { "full_id": "w364455463", "osm_id": "364455463", "osm_type": "way", "amenity": "fire_station", "level": null, "entrance": null, "access": null, "barrier": null, "ref": null, "phone": null, "operator": null, "name": "ВГСО", "email": null, "addr:street": "Промышленная улица", "addr:housenumber": "84", "addr:city": "Пермь" }, "geometry": { "type": "Point", "coordinates": [ 56.142419714007097, 57.92134019085919 ] } },
{ "type": "Feature", "properties": { "full_id": "w1099767735", "osm_id": "1099767735", "osm_type": "way", "amenity": "fire_station", "level": null, "entrance": null, "access": null, "barrier": null, "ref": null, "phone": null, "operator": "ФГБУ «5 отряд ФПС ГПС по Пермскому краю (договорной)»", "name": "108 пожарная часть", "email": null, "addr:street": "Соликамская улица", "addr:housenumber": "293", "addr:city": "Пермь" }, "geometry": { "type": "Point", "coordinates": [ 56.354765495747465, 58.09440324957523 ] } },
{ "type": "Feature", "properties": { "full_id": "w1137127287", "osm_id": "1137127287", "osm_type": "way", "amenity": "fire_station", "level": null, "entrance": null, "access": null, "barrier": null, "ref": null, "phone": null, "operator": "ФГП «Ведомственная охрана железнодорожного транспорта Российской Федерации»", "name": "Пожарный поезд ст. Пермь- Сортировочная", "email": null, "addr:street": "улица Кочегаров", "addr:housenumber": "12", "addr:city": "Пермь" }, "geometry": { "type": "Point", "coordinates": [ 56.106497545691632, 58.037506132118082 ] } },
{ "type": "Feature", "properties": { "full_id": "w42144563", "osm_id": "42144563", "osm_type": "way", "amenity": "fire_station", "level": null, "entrance": null, "access": null, "barrier": null, "ref": "ПСЧ-4", "phone": "+734222228782", "operator": "RU-PER-10-4", "name": "Пожарно-спасательная часть №4", "email": null, "addr:street": "улица Василия Каменского", "addr:housenumber": "2", "addr:city": "Пермь" }, "geometry": { "type": "Point", "coordinates": [ 56.166626949444314, 57.999599065831475 ] } },
{ "type": "Feature", "properties": { "full_id": "w70831012", "osm_id": "70831012", "osm_type": "way", "amenity": "fire_station", "level": null, "entrance": null, "access": null, "barrier": null, "ref": null, "phone": null, "operator": null, "name": null, "email": null, "addr:street": "улица Белинского", "addr:housenumber": "52", "addr:city": null }, "geometry": { "type": "Point", "coordinates": [ 56.24937202570888, 57.993832766218638 ] } },
{ "type": "Feature", "properties": { "full_id": "w70960915", "osm_id": "70960915", "osm_type": "way", "amenity": "fire_station", "level": null, "entrance": null, "access": null, "barrier": null, "ref": "ПСЧ-36", "phone": "+7 342 2208501", "operator": "RU-PER-10-36", "name": "Пожарно-спасательная часть №36", "email": null, "addr:street": "Стахановская улица", "addr:housenumber": "58", "addr:city": "Пермь" }, "geometry": { "type": "Point", "coordinates": [ 56.200388696613736, 57.990729743926359 ] } },
{ "type": "Feature", "properties": { "full_id": "w700261685", "osm_id": "700261685", "osm_type": "way", "amenity": "fire_station", "level": null, "entrance": null, "access": null, "barrier": null, "ref": null, "phone": null, "operator": null, "name": "Пожарная часть №31", "email": null, "addr:street": "Промышленная улица", "addr:housenumber": "98", "addr:city": "Пермь" }, "geometry": { "type": "Point", "coordinates": [ 56.173428118423651, 57.879528044497519 ] } },
{ "type": "Feature", "properties": { "full_id": "w700261686", "osm_id": "700261686", "osm_type": "way", "amenity": "fire_station", "level": null, "entrance": null, "access": null, "barrier": null, "ref": null, "phone": null, "operator": null, "name": "ВПЧ-38", "email": null, "addr:street": "Промышленная улица", "addr:housenumber": "98А", "addr:city": "Пермь" }, "geometry": { "type": "Point", "coordinates": [ 56.180091824846492, 57.8753522010594 ] } },
{ "type": "Feature", "properties": { "full_id": "w930388949", "osm_id": "930388949", "osm_type": "way", "amenity": "fire_station", "level": null, "entrance": null, "access": null, "barrier": "yes", "ref": null, "phone": null, "operator": null, "name": null, "email": null, "addr:street": null, "addr:housenumber": null, "addr:city": null }, "geometry": { "type": "Point", "coordinates": [ 56.296451567399878, 57.988074500923339 ] } },
{ "type": "Feature", "properties": { "full_id": "w1098146353", "osm_id": "1098146353", "osm_type": "way", "amenity": "fire_station", "level": null, "entrance": null, "access": null, "barrier": null, "ref": null, "phone": null, "operator": null, "name": null, "email": null, "addr:street": null, "addr:housenumber": null, "addr:city": null }, "geometry": { "type": "Point", "coordinates": [ 56.376057739278743, 58.138347928265574 ] } },
{ "type": "Feature", "properties": { "full_id": "n444317871", "osm_id": "444317871", "osm_type": "node", "amenity": "fire_station", "level": null, "entrance": null, "access": null, "barrier": null, "ref": "ПСЧ-3", "phone": "+7 342 2602396", "operator": "RU-PER-10-3", "name": "Пожарно-спасательная часть №3", "email": "3pch10ofps@mail.ru", "addr:street": "Уральская улица", "addr:housenumber": "74", "addr:city": "Пермь" }, "geometry": { "type": "Point", "coordinates": [ 56.2959662, 58.0284114 ] } },
{ "type": "Feature", "properties": { "full_id": "n1049157139", "osm_id": "1049157139", "osm_type": "node", "amenity": "fire_station", "level": null, "entrance": null, "access": null, "barrier": null, "ref": null, "phone": null, "operator": null, "name": null, "email": null, "addr:street": null, "addr:housenumber": null, "addr:city": null }, "geometry": { "type": "Point", "coordinates": [ 56.1094309, 58.0399602 ] } },
{ "type": "Feature", "properties": { "full_id": "n1493001791", "osm_id": "1493001791", "osm_type": "node", "amenity": "fire_station", "level": null, "entrance": null, "access": null, "barrier": null, "ref": null, "phone": null, "operator": null, "name": "Пожарная часть №1", "email": null, "addr:street": null, "addr:housenumber": null, "addr:city": null }, "geometry": { "type": "Point", "coordinates": [ 56.229892, 58.0136931 ] } },
{ "type": "Feature", "properties": { "full_id": "n3963083320", "osm_id": "3963083320", "osm_type": "node", "amenity": "fire_station", "level": null, "entrance": null, "access": null, "barrier": null, "ref": null, "phone": null, "operator": null, "name": null, "email": null, "addr:street": null, "addr:housenumber": null, "addr:city": null }, "geometry": { "type": "Point", "coordinates": [ 56.3726606, 58.1111914 ] } },
{ "type": "Feature", "properties": { "full_id": "n10079025978", "osm_id": "10079025978", "osm_type": "node", "amenity": "fire_station", "level": "1", "entrance": null, "access": null, "barrier": null, "ref": null, "phone": null, "operator": "АО «Мотовилихинские заводы»", "name": "Отряд ведомственной пожарной охраны", "email": null, "addr:street": null, "addr:housenumber": null, "addr:city": null }, "geometry": { "type": "Point", "coordinates": [ 56.3091174, 58.0389202 ] } }
]
}
