{
"type": "FeatureCollection",
"name": "photo",
"crs": { "type": "name", "properties": { "name": "urn:ogc:def:crs:OGC:1.3:CRS84" } },
"features": [
{ "type": "Feature", "properties": { "full_id": "n3018393914", "osm_id": "3018393914", "osm_type": "node", "shop": "photo", "email": null, "addr:postcode": null, "website": null, "phone": null, "opening_hours": null, "name:ru": null, "name:en": null, "internet_access": null, "addr:street": null, "addr:housenumber": null, "addr:city": null, "name": "Цифровой мир" }, "geometry": { "type": "Point", "coordinates": [ 56.2486294, 58.0005089 ] } },
{ "type": "Feature", "properties": { "full_id": "n4193738710", "osm_id": "4193738710", "osm_type": "node", "shop": "photo", "email": null, "addr:postcode": null, "website": null, "phone": null, "opening_hours": null, "name:ru": null, "name:en": null, "internet_access": null, "addr:street": "Стахановская улица", "addr:housenumber": "40А", "addr:city": "Пермь", "name": "Фото мир" }, "geometry": { "type": "Point", "coordinates": [ 56.2163712, 57.9867416 ] } },
{ "type": "Feature", "properties": { "full_id": "n6586626285", "osm_id": "6586626285", "osm_type": "node", "shop": "photo", "email": null, "addr:postcode": null, "website": "http://www.fotomag59.ru", "phone": "+73422761012", "opening_hours": "Mo-Sa 11:00-21:00; Su 11:00-18:00", "name:ru": "Фотомаг59", "name:en": "Fotomag59", "internet_access": "wlan", "addr:street": null, "addr:housenumber": null, "addr:city": null, "name": "Фотомаг59" }, "geometry": { "type": "Point", "coordinates": [ 56.2513172, 58.0091314 ] } },
{ "type": "Feature", "properties": { "full_id": "n8042200189", "osm_id": "8042200189", "osm_type": "node", "shop": "photo", "email": "wellcore@mail.ru", "addr:postcode": "614039", "website": "https://foto59.ru/", "phone": "+73422442955", "opening_hours": "Mo-Fr 10:00-20:00, Sa 10:00-19:00, Su 10:00-18:00", "name:ru": null, "name:en": "Foto59 Wellcore", "internet_access": null, "addr:street": null, "addr:housenumber": null, "addr:city": null, "name": "Foto59 Велкор" }, "geometry": { "type": "Point", "coordinates": [ 56.2523749, 57.9991652 ] } },
{ "type": "Feature", "properties": { "full_id": "n9672078118", "osm_id": "9672078118", "osm_type": "node", "shop": "photo", "email": null, "addr:postcode": null, "website": null, "phone": null, "opening_hours": null, "name:ru": null, "name:en": null, "internet_access": null, "addr:street": null, "addr:housenumber": null, "addr:city": null, "name": "Фото на документы" }, "geometry": { "type": "Point", "coordinates": [ 56.3045704, 58.1074133 ] } }
]
}
