{
"type": "FeatureCollection",
"name": "theme_park",
"crs": { "type": "name", "properties": { "name": "urn:ogc:def:crs:OGC:1.3:CRS84" } },
"features": [
{ "type": "Feature", "properties": { "full_id": "r11044135", "osm_id": "11044135", "osm_type": "relation", "tourism": "theme_park", "name:ru": null, "resort": null, "landuse": null, "addr:postcode": null, "addr:city": null, "building:levels": null, "building": null, "addr:street": null, "addr:housenumber": null, "wikipedia": null, "wikidata": null, "leisure": null, "website": "https://zshpagina.ru/", "type": "multipolygon", "name": "Центр искусств «Завод Шпагина»", "amenity": "arts_centre", "full_id_2": null, "osm_id_2": null, "osm_type_2": null, "entrance": null, "access": null, "barrier": null }, "geometry": { "type": "MultiPoint", "coordinates": [ [ 56.256832177732093, 58.020505387002324 ] ] } },
{ "type": "Feature", "properties": { "full_id": "r14166773", "osm_id": "14166773", "osm_type": "relation", "tourism": "theme_park", "name:ru": null, "resort": null, "landuse": null, "addr:postcode": null, "addr:city": null, "building:levels": null, "building": null, "addr:street": null, "addr:housenumber": null, "wikipedia": "ru:Парк Горького (Пермь)", "wikidata": "Q4345220", "leisure": "park", "website": "https://parkperm.ru/", "type": "multipolygon", "name": "Центральный парк культуры и отдыха имени Горького", "amenity": null, "full_id_2": null, "osm_id_2": null, "osm_type_2": null, "entrance": null, "access": null, "barrier": null }, "geometry": { "type": "MultiPoint", "coordinates": [ [ 56.248991442375242, 58.005128393339909 ] ] } },
{ "type": "Feature", "properties": { "full_id": "w55492658", "osm_id": "55492658", "osm_type": "way", "tourism": "theme_park", "name:ru": null, "resort": null, "landuse": null, "addr:postcode": null, "addr:city": null, "building:levels": "2", "building": "yes", "addr:street": "улица Тимирязева", "addr:housenumber": "26А", "wikipedia": null, "wikidata": null, "leisure": null, "website": null, "type": null, "name": "ЦДДиТ «Созвучие»", "amenity": null, "full_id_2": null, "osm_id_2": null, "osm_type_2": null, "entrance": null, "access": null, "barrier": null }, "geometry": { "type": "MultiPoint", "coordinates": [ [ 56.2658723, 58.00375685 ] ] } },
{ "type": "Feature", "properties": { "full_id": "w133635744", "osm_id": "133635744", "osm_type": "way", "tourism": "theme_park", "name:ru": null, "resort": "recreation_center", "landuse": "recreation_ground", "addr:postcode": "614058", "addr:city": "Пермь", "building:levels": null, "building": null, "addr:street": "Трамвайная улица", "addr:housenumber": "1А", "wikipedia": null, "wikidata": null, "leisure": "resort", "website": "https://чистый-бережок.рф", "type": null, "name": "Чистый бережок", "amenity": null, "full_id_2": null, "osm_id_2": null, "osm_type_2": null, "entrance": null, "access": null, "barrier": null }, "geometry": { "type": "MultiPoint", "coordinates": [ [ 56.133209932213347, 58.001720138167222 ] ] } },
{ "type": "Feature", "properties": { "full_id": "w224455169", "osm_id": "224455169", "osm_type": "way", "tourism": "theme_park", "name:ru": "Счастье есть", "resort": null, "landuse": null, "addr:postcode": null, "addr:city": null, "building:levels": null, "building": null, "addr:street": null, "addr:housenumber": null, "wikipedia": null, "wikidata": null, "leisure": null, "website": null, "type": null, "name": "Счастье есть", "amenity": null, "full_id_2": null, "osm_id_2": null, "osm_type_2": null, "entrance": null, "access": null, "barrier": null }, "geometry": { "type": "MultiPoint", "coordinates": [ [ 55.97084049374682, 58.010621118516269 ] ] } },
{ "type": "Feature", "properties": { "full_id": "w643090710", "osm_id": "643090710", "osm_type": "way", "tourism": "theme_park", "name:ru": null, "resort": null, "landuse": null, "addr:postcode": null, "addr:city": null, "building:levels": null, "building": null, "addr:street": null, "addr:housenumber": null, "wikipedia": null, "wikidata": null, "leisure": null, "website": null, "type": null, "name": null, "amenity": null, "full_id_2": null, "osm_id_2": null, "osm_type_2": null, "entrance": null, "access": null, "barrier": null }, "geometry": { "type": "MultiPoint", "coordinates": [ [ 56.315070756018315, 58.028105425757666 ] ] } },
{ "type": "Feature", "properties": { "full_id": "w1101067830", "osm_id": "1101067830", "osm_type": "way", "tourism": "theme_park", "name:ru": null, "resort": "recreation_center", "landuse": "recreation_ground", "addr:postcode": null, "addr:city": "Пермь", "building:levels": null, "building": null, "addr:street": "Монастырская улица", "addr:housenumber": "1Б", "wikipedia": null, "wikidata": null, "leisure": null, "website": "https://portkama.ru/", "type": null, "name": "Парк отдыха «Порт Кама»", "amenity": null, "full_id_2": null, "osm_id_2": null, "osm_type_2": null, "entrance": null, "access": null, "barrier": null }, "geometry": { "type": "MultiPoint", "coordinates": [ [ 56.27472360276213, 58.026613962056373 ] ] } },
{ "type": "Feature", "properties": { "full_id": "w1133972564", "osm_id": "1133972564", "osm_type": "way", "tourism": "theme_park", "name:ru": null, "resort": "recreation_center", "landuse": "recreation_ground", "addr:postcode": "614058", "addr:city": "Пермь", "building:levels": null, "building": null, "addr:street": "улица 9 Января", "addr:housenumber": "20/1", "wikipedia": null, "wikidata": null, "leisure": "resort", "website": null, "type": null, "name": null, "amenity": null, "full_id_2": null, "osm_id_2": null, "osm_type_2": null, "entrance": null, "access": null, "barrier": null }, "geometry": { "type": "MultiPoint", "coordinates": [ [ 56.132248612964823, 58.006767364355547 ] ] } }
]
}
