{
"type": "FeatureCollection",
"name": "travel_agency",
"crs": { "type": "name", "properties": { "name": "urn:ogc:def:crs:OGC:1.3:CRS84" } },
"features": [
{ "type": "Feature", "properties": { "full_id": "n2385159823", "osm_id": "2385159823", "osm_type": "node", "shop": "travel_agency", "description": null, "addr:postcode": null, "addr:street": null, "addr:housenumber": null, "opening_hours": null, "website": "http://permopen.com", "phone": "+7 342 2377642;+7 342 2377254;+7 342 2123475", "name:zh_pinyin": "翻译公司Avanta", "name:pt": "Agência de tradução Avanta", "name:nl": "Vertaalbureau Avanta", "name:ja_rm": "翻訳代理店アバンタ", "name:it": "Agenzia di traduzione Avanta", "name:fr": "Agence de traductions Avanta", "name:es": "Agencia de traducción Avanza", "name:en": "Translation agency Avanta", "name:de": "Übersetzungsbüro Avanta", "name": "Аванта", "email": "shamild7@gmail.com" }, "geometry": { "type": "Point", "coordinates": [ 56.247918, 58.0071072 ] } },
{ "type": "Feature", "properties": { "full_id": "n3029594291", "osm_id": "3029594291", "osm_type": "node", "shop": "travel_agency", "description": null, "addr:postcode": null, "addr:street": null, "addr:housenumber": null, "opening_hours": null, "website": null, "phone": null, "name:zh_pinyin": null, "name:pt": null, "name:nl": null, "name:ja_rm": null, "name:it": null, "name:fr": null, "name:es": null, "name:en": null, "name:de": null, "name": "Пермкурорт", "email": null }, "geometry": { "type": "Point", "coordinates": [ 56.2602654, 57.9982502 ] } },
{ "type": "Feature", "properties": { "full_id": "n3118766138", "osm_id": "3118766138", "osm_type": "node", "shop": "travel_agency", "description": null, "addr:postcode": null, "addr:street": null, "addr:housenumber": null, "opening_hours": null, "website": null, "phone": null, "name:zh_pinyin": null, "name:pt": null, "name:nl": null, "name:ja_rm": null, "name:it": null, "name:fr": null, "name:es": null, "name:en": null, "name:de": null, "name": "Tez Tour", "email": null }, "geometry": { "type": "Point", "coordinates": [ 56.2520766, 58.0036324 ] } },
{ "type": "Feature", "properties": { "full_id": "n3133047253", "osm_id": "3133047253", "osm_type": "node", "shop": "travel_agency", "description": null, "addr:postcode": null, "addr:street": null, "addr:housenumber": null, "opening_hours": "Mo-Fr 10:00-20:00, Sa 10:00-17:00", "website": "http://anexshop.com/", "phone": "+7 342 2079965", "name:zh_pinyin": null, "name:pt": null, "name:nl": null, "name:ja_rm": null, "name:it": null, "name:fr": null, "name:es": null, "name:en": null, "name:de": null, "name": "Anex Shop", "email": "perm@anexshop.ru" }, "geometry": { "type": "Point", "coordinates": [ 56.2568162, 58.0143774 ] } },
{ "type": "Feature", "properties": { "full_id": "n3139607628", "osm_id": "3139607628", "osm_type": "node", "shop": "travel_agency", "description": null, "addr:postcode": null, "addr:street": null, "addr:housenumber": null, "opening_hours": null, "website": null, "phone": null, "name:zh_pinyin": null, "name:pt": null, "name:nl": null, "name:ja_rm": null, "name:it": null, "name:fr": null, "name:es": null, "name:en": null, "name:de": null, "name": "Pegas Tourostik", "email": null }, "geometry": { "type": "Point", "coordinates": [ 56.2559179, 58.0156752 ] } },
{ "type": "Feature", "properties": { "full_id": "n3631680794", "osm_id": "3631680794", "osm_type": "node", "shop": "travel_agency", "description": null, "addr:postcode": null, "addr:street": null, "addr:housenumber": null, "opening_hours": null, "website": null, "phone": null, "name:zh_pinyin": null, "name:pt": null, "name:nl": null, "name:ja_rm": null, "name:it": null, "name:fr": null, "name:es": null, "name:en": null, "name:de": null, "name": "Континент", "email": null }, "geometry": { "type": "Point", "coordinates": [ 56.2507746, 58.0106276 ] } },
{ "type": "Feature", "properties": { "full_id": "n3631680797", "osm_id": "3631680797", "osm_type": "node", "shop": "travel_agency", "description": null, "addr:postcode": null, "addr:street": null, "addr:housenumber": null, "opening_hours": "Mo-Fr 10:00-19:00; Sa 12:00-16:00; Su off", "website": null, "phone": null, "name:zh_pinyin": null, "name:pt": null, "name:nl": null, "name:ja_rm": null, "name:it": null, "name:fr": null, "name:es": null, "name:en": null, "name:de": null, "name": "Моя планета", "email": null }, "geometry": { "type": "Point", "coordinates": [ 56.2540709, 58.009943 ] } },
{ "type": "Feature", "properties": { "full_id": "n3631680804", "osm_id": "3631680804", "osm_type": "node", "shop": "travel_agency", "description": null, "addr:postcode": null, "addr:street": null, "addr:housenumber": null, "opening_hours": null, "website": null, "phone": null, "name:zh_pinyin": null, "name:pt": null, "name:nl": null, "name:ja_rm": null, "name:it": null, "name:fr": null, "name:es": null, "name:en": null, "name:de": null, "name": "Экспресс-тур", "email": null }, "geometry": { "type": "Point", "coordinates": [ 56.2516417, 58.0114779 ] } },
{ "type": "Feature", "properties": { "full_id": "n4190517822", "osm_id": "4190517822", "osm_type": "node", "shop": "travel_agency", "description": null, "addr:postcode": null, "addr:street": "улица 25 Октября", "addr:housenumber": "8", "opening_hours": "Mo-Fr 10:00-19:00; Sa 11:00-16:00", "website": "https://zmtravel.ru/", "phone": "+7 342 2942258;+7 342 2942259", "name:zh_pinyin": null, "name:pt": null, "name:nl": null, "name:ja_rm": null, "name:it": null, "name:fr": null, "name:es": null, "name:en": null, "name:de": null, "name": "турклуб \"Затерянный Мир\"", "email": null }, "geometry": { "type": "Point", "coordinates": [ 56.2473305, 58.0170289 ] } },
{ "type": "Feature", "properties": { "full_id": "n4273581390", "osm_id": "4273581390", "osm_type": "node", "shop": "travel_agency", "description": null, "addr:postcode": null, "addr:street": null, "addr:housenumber": null, "opening_hours": null, "website": null, "phone": null, "name:zh_pinyin": null, "name:pt": null, "name:nl": null, "name:ja_rm": null, "name:it": null, "name:fr": null, "name:es": null, "name:en": null, "name:de": null, "name": "Кама-Трэвел", "email": null }, "geometry": { "type": "Point", "coordinates": [ 56.2230703, 58.0076768 ] } },
{ "type": "Feature", "properties": { "full_id": "n4298998589", "osm_id": "4298998589", "osm_type": "node", "shop": "travel_agency", "description": "ТУРЫ ВО ВСЕ СТРАНЫ МИРА! АВИАБИЛЕТЫ", "addr:postcode": "614000", "addr:street": null, "addr:housenumber": null, "opening_hours": "Mo-Su 10:00-20:00", "website": "https://www.skoperm.ru/", "phone": "+7 342 2700303", "name:zh_pinyin": null, "name:pt": null, "name:nl": null, "name:ja_rm": null, "name:it": null, "name:fr": null, "name:es": null, "name:en": "SKO TRAVEL", "name:de": null, "name": "СКО ТРЭВЕЛ", "email": "skoperm@mail.ru" }, "geometry": { "type": "Point", "coordinates": [ 56.25881, 58.0145998 ] } },
{ "type": "Feature", "properties": { "full_id": "n4298998689", "osm_id": "4298998689", "osm_type": "node", "shop": "travel_agency", "description": "ТУРЫ ПО РОССИИ И ВО ВСЕ СТРАНЫ МИРА! АВИАБИЛЕТЫ", "addr:postcode": "614000", "addr:street": null, "addr:housenumber": null, "opening_hours": "Mo-Su 10:00-20:00", "website": "https://www.skoperm.ru/", "phone": "+7 342 2700303", "name:zh_pinyin": null, "name:pt": null, "name:nl": null, "name:ja_rm": null, "name:it": null, "name:fr": null, "name:es": null, "name:en": "SKO TRAVEL", "name:de": null, "name": "СКО ТРЭВЕЛ", "email": "skoperm@mail.ru" }, "geometry": { "type": "Point", "coordinates": [ 56.2393055, 58.0148376 ] } },
{ "type": "Feature", "properties": { "full_id": "n4486771293", "osm_id": "4486771293", "osm_type": "node", "shop": "travel_agency", "description": null, "addr:postcode": null, "addr:street": null, "addr:housenumber": null, "opening_hours": "Mo-Fr 10:00-19:00; Sa 12:00-16:00", "website": "https://www.planetaperm.ru/", "phone": "+7 342 2401801", "name:zh_pinyin": null, "name:pt": null, "name:nl": null, "name:ja_rm": null, "name:it": null, "name:fr": null, "name:es": null, "name:en": null, "name:de": null, "name": "Планета", "email": null }, "geometry": { "type": "Point", "coordinates": [ 56.2515362, 57.9984914 ] } },
{ "type": "Feature", "properties": { "full_id": "n4486775996", "osm_id": "4486775996", "osm_type": "node", "shop": "travel_agency", "description": null, "addr:postcode": null, "addr:street": null, "addr:housenumber": null, "opening_hours": "Mo-Fr 10:00-19:00; Sa 12:00-16:00", "website": "https://www.planetaperm.ru/", "phone": "+7 342 2368326", "name:zh_pinyin": null, "name:pt": null, "name:nl": null, "name:ja_rm": null, "name:it": null, "name:fr": null, "name:es": null, "name:en": "Planet", "name:de": null, "name": "Планета", "email": null }, "geometry": { "type": "Point", "coordinates": [ 56.2052693, 58.0061744 ] } },
{ "type": "Feature", "properties": { "full_id": "n4486782792", "osm_id": "4486782792", "osm_type": "node", "shop": "travel_agency", "description": null, "addr:postcode": null, "addr:street": null, "addr:housenumber": null, "opening_hours": "Mo-Fr 10:00-19:00; Sa 12:00-16:00", "website": "https://www.pegasperm.ru/", "phone": "+7 342 2101070", "name:zh_pinyin": null, "name:pt": null, "name:nl": null, "name:ja_rm": null, "name:it": null, "name:fr": null, "name:es": null, "name:en": "Pegas Touristik", "name:de": null, "name": "Пегас туристик", "email": null }, "geometry": { "type": "Point", "coordinates": [ 56.2406148, 58.0149574 ] } },
{ "type": "Feature", "properties": { "full_id": "n4486787489", "osm_id": "4486787489", "osm_type": "node", "shop": "travel_agency", "description": null, "addr:postcode": null, "addr:street": null, "addr:housenumber": null, "opening_hours": "Mo-Fr 10:00-19:00; Sa 12:00-16:00", "website": "https://www.pegasperm.ru/", "phone": "+7 342 2351208", "name:zh_pinyin": null, "name:pt": null, "name:nl": null, "name:ja_rm": null, "name:it": null, "name:fr": null, "name:es": null, "name:en": "Pegas Touristik", "name:de": null, "name": "Пегас туристик", "email": null }, "geometry": { "type": "Point", "coordinates": [ 56.2328085, 58.0129167 ] } },
{ "type": "Feature", "properties": { "full_id": "n4486787589", "osm_id": "4486787589", "osm_type": "node", "shop": "travel_agency", "description": null, "addr:postcode": null, "addr:street": null, "addr:housenumber": null, "opening_hours": "Mo-Fr 10:00-19:00; Sa 12:00-16:00", "website": "https://www.pegasperm.ru/", "phone": "+7 342 2377775", "name:zh_pinyin": null, "name:pt": null, "name:nl": null, "name:ja_rm": null, "name:it": null, "name:fr": null, "name:es": null, "name:en": "Pegas Touristik", "name:de": null, "name": "Пегас Туристик", "email": null }, "geometry": { "type": "Point", "coordinates": [ 56.2390503, 58.0090237 ] } },
{ "type": "Feature", "properties": { "full_id": "n4486787590", "osm_id": "4486787590", "osm_type": "node", "shop": "travel_agency", "description": null, "addr:postcode": null, "addr:street": null, "addr:housenumber": null, "opening_hours": "Mo-Fr 10:00-19:00; Sa 12:00-16:00", "website": "https://www.pegasperm.ru/", "phone": "+7 342 2366500", "name:zh_pinyin": null, "name:pt": null, "name:nl": null, "name:ja_rm": null, "name:it": null, "name:fr": null, "name:es": null, "name:en": "Pegas Touristik", "name:de": null, "name": "Пегас Туристик", "email": null }, "geometry": { "type": "Point", "coordinates": [ 56.2118641, 58.0068103 ] } },
{ "type": "Feature", "properties": { "full_id": "n4488950189", "osm_id": "4488950189", "osm_type": "node", "shop": "travel_agency", "description": null, "addr:postcode": null, "addr:street": null, "addr:housenumber": null, "opening_hours": "Mo-Fr 10:00-19:00; Sa 12:00-16:00", "website": "https://www.tezperm.ru/", "phone": "+7 342 2810210", "name:zh_pinyin": null, "name:pt": null, "name:nl": null, "name:ja_rm": null, "name:it": null, "name:fr": null, "name:es": null, "name:en": null, "name:de": null, "name": "Тез Тур", "email": null }, "geometry": { "type": "Point", "coordinates": [ 56.2560011, 57.9937626 ] } }
]
}
